0 DELTA 1 DEB
1 07085U 73086CD  13280.80588897  .00000148  00000-0  11168-2 0  2086
2 07085 102.0683 219.0778 0097016 107.8007 309.9086 12.59302251832639
0 DELTA 1 DEB
1 07085U 73086CD  13283.29132329  .00000161  00000-0  11874-2 0  2097
2 07085 102.0687 221.6316 0097126 103.0229 057.5993 12.59303630832945
0 DELTA 1 DEB
1 07085U 73086CD  13285.42677920  .00000148  00000-0  11121-2 0  2107
2 07085 102.0692 223.8257 0097238 098.9202 018.6741 12.59304558833216
0 DELTA 1 DEB
1 07085U 73086CD  13287.79655753  .00000174  00000-0  12612-2 0  2115
2 07085 102.0698 226.2607 0097341 094.3747 322.0497 12.59305464833517
0 DELTA 1 DEB
1 07085U 73086CD  13290.28417236  .00000186  00000-0  13296-2 0  2128
2 07085 102.0703 228.8168 0097459 089.6096 079.6387 12.59306447833827
0 DELTA 1 DEB
1 07085U 73086CD  13292.34628628  .00000190  00000-0  13551-2 0  2136
2 07085 102.0705 230.9360 0097537 085.6593 068.2294 12.59307261834087
0 DELTA 1 DEB
1 07085U 73086CD  13294.40411897  .00000191  00000-0  13594-2 0  2142
2 07085 102.0705 233.0509 0097640 081.7297 037.4040 12.59308341834345
